CCSDS_OMM_VERS = 2.0
CREATION_DATE  = 
ORIGINATOR     = 

OBJECT_NAME    = ALOS-2
OBJECT_ID      = 2014-029A
CENTER_NAME    = EARTH
REF_FRAME      = TEME
TIME_SYSTEM    = UTC
MEAN_ELEMENT_THEORY = SGP/SGP4

EPOCH          = 2026-04-01T23:37:37.495200
MEAN_MOTION    = 14.79462785
ECCENTRICITY   = .00020082
INCLINATION    = 97.9198
RA_OF_ASC_NODE = 190.2433
ARG_OF_PERICENTER = 101.0239
MEAN_ANOMALY   = 259.1199

EPHEMERIS_TYPE = 0
CLASSIFICATION_TYPE = U
NORAD_CAT_ID   = 39766
ELEMENT_SET_NO = 999
REV_AT_EPOCH   = 64031
BSTAR          = .78892857E-4
MEAN_MOTION_DOT = .538E-5
MEAN_MOTION_DDOT = 0

CCSDS_OMM_VERS = 2.0
CREATION_DATE  = 
ORIGINATOR     = 

OBJECT_NAME    = YAOGAN-29
OBJECT_ID      = 2015-069A
CENTER_NAME    = EARTH
REF_FRAME      = TEME
TIME_SYSTEM    = UTC
MEAN_ELEMENT_THEORY = SGP/SGP4

EPOCH          = 2026-04-02T00:06:46.065312
MEAN_MOTION    = 14.83019350
ECCENTRICITY   = .00001439
INCLINATION    = 98.0108
RA_OF_ASC_NODE = 120.4934
ARG_OF_PERICENTER = 348.4679
MEAN_ANOMALY   = 11.6531

EPHEMERIS_TYPE = 0
CLASSIFICATION_TYPE = U
NORAD_CAT_ID   = 41038
ELEMENT_SET_NO = 999
REV_AT_EPOCH   = 55933
BSTAR          = .4980576E-5
MEAN_MOTION_DOT = -.14E-6
MEAN_MOTION_DDOT = 0

CCSDS_OMM_VERS = 2.0
CREATION_DATE  = 
ORIGINATOR     = 

OBJECT_NAME    = ASTRO-H (HITOMI)
OBJECT_ID      = 2016-012A
CENTER_NAME    = EARTH
REF_FRAME      = TEME
TIME_SYSTEM    = UTC
MEAN_ELEMENT_THEORY = SGP/SGP4

EPOCH          = 2026-04-01T15:16:50.803968
MEAN_MOTION    = 15.10152335
ECCENTRICITY   = .00096599
INCLINATION    = 30.9992
RA_OF_ASC_NODE = 208.4476
ARG_OF_PERICENTER = 202.6657
MEAN_ANOMALY   = 157.3555

EPHEMERIS_TYPE = 0
CLASSIFICATION_TYPE = U
NORAD_CAT_ID   = 41337
ELEMENT_SET_NO = 999
REV_AT_EPOCH   = 55570
BSTAR          = .20867814E-3
MEAN_MOTION_DOT = .3587E-4
MEAN_MOTION_DDOT = 0

CCSDS_OMM_VERS = 2.0
CREATION_DATE  = 
ORIGINATOR     = 

OBJECT_NAME    = HXMT (HUIYAN)
OBJECT_ID      = 2017-034A
CENTER_NAME    = EARTH
REF_FRAME      = TEME
TIME_SYSTEM    = UTC
MEAN_ELEMENT_THEORY = SGP/SGP4

EPOCH          = 2026-04-01T21:06:05.798592
MEAN_MOTION    = 15.17758304
ECCENTRICITY   = .00313005
INCLINATION    = 43.0134
RA_OF_ASC_NODE = 247.7186
ARG_OF_PERICENTER = 19.1005
MEAN_ANOMALY   = 341.1010

EPHEMERIS_TYPE = 0
CLASSIFICATION_TYPE = U
NORAD_CAT_ID   = 42758
ELEMENT_SET_NO = 999
REV_AT_EPOCH   = 48606
BSTAR          = .32218118E-3
MEAN_MOTION_DOT = .6469E-4
MEAN_MOTION_DDOT = 0

CCSDS_OMM_VERS = 2.0
CREATION_DATE  = 
ORIGINATOR     = 

OBJECT_NAME    = SAOCOM 1A
OBJECT_ID      = 2018-076A
CENTER_NAME    = EARTH
REF_FRAME      = TEME
TIME_SYSTEM    = UTC
MEAN_ELEMENT_THEORY = SGP/SGP4

EPOCH          = 2026-04-01T23:37:08.586624
MEAN_MOTION    = 14.82144173
ECCENTRICITY   = .00013663
INCLINATION    = 97.8898
RA_OF_ASC_NODE = 279.8281
ARG_OF_PERICENTER = 86.2058
MEAN_ANOMALY   = 273.9311

EPHEMERIS_TYPE = 0
CLASSIFICATION_TYPE = U
NORAD_CAT_ID   = 43641
ELEMENT_SET_NO = 999
REV_AT_EPOCH   = 40481
BSTAR          = -.36611255E-4
MEAN_MOTION_DOT = -.344E-5
MEAN_MOTION_DDOT = 0

CCSDS_OMM_VERS = 2.0
CREATION_DATE  = 
ORIGINATOR     = 

OBJECT_NAME    = H-2A R/B
OBJECT_ID      = 2018-084L
CENTER_NAME    = EARTH
REF_FRAME      = TEME
TIME_SYSTEM    = UTC
MEAN_ELEMENT_THEORY = SGP/SGP4

EPOCH          = 2026-04-01T04:30:25.375680
MEAN_MOTION    = 15.42318515
ECCENTRICITY   = .00235073
INCLINATION    = 98.8700
RA_OF_ASC_NODE = 313.3988
ARG_OF_PERICENTER = 306.3863
MEAN_ANOMALY   = 53.5211

EPHEMERIS_TYPE = 0
CLASSIFICATION_TYPE = U
NORAD_CAT_ID   = 43682
ELEMENT_SET_NO = 999
REV_AT_EPOCH   = 40924
BSTAR          = .43580997E-3
MEAN_MOTION_DOT = .1887E-3
MEAN_MOTION_DDOT = 0

CCSDS_OMM_VERS = 2.0
CREATION_DATE  = 
ORIGINATOR     = 

OBJECT_NAME    = SAOCOM 1B
OBJECT_ID      = 2020-059A
CENTER_NAME    = EARTH
REF_FRAME      = TEME
TIME_SYSTEM    = UTC
MEAN_ELEMENT_THEORY = SGP/SGP4

EPOCH          = 2026-04-01T22:44:55.726080
MEAN_MOTION    = 14.82148849
ECCENTRICITY   = .00014765
INCLINATION    = 97.8886
RA_OF_ASC_NODE = 278.8893
ARG_OF_PERICENTER = 85.2335
MEAN_ANOMALY   = 274.9046

EPHEMERIS_TYPE = 0
CLASSIFICATION_TYPE = U
NORAD_CAT_ID   = 46265
ELEMENT_SET_NO = 999
REV_AT_EPOCH   = 30219
BSTAR          = .19642787E-3
MEAN_MOTION_DOT = .1512E-4
MEAN_MOTION_DDOT = 0

CCSDS_OMM_VERS = 2.0
CREATION_DATE  = 
ORIGINATOR     = 

OBJECT_NAME    = CSS (TIANHE)
OBJECT_ID      = 2021-035A
CENTER_NAME    = EARTH
REF_FRAME      = TEME
TIME_SYSTEM    = UTC
MEAN_ELEMENT_THEORY = SGP/SGP4

EPOCH          = 2026-04-01T08:38:43.102176
MEAN_MOTION    = 15.61804306
ECCENTRICITY   = .00037219
INCLINATION    = 41.4670
RA_OF_ASC_NODE = 70.0996
ARG_OF_PERICENTER = 85.9086
MEAN_ANOMALY   = 274.2179

EPHEMERIS_TYPE = 0
CLASSIFICATION_TYPE = U
NORAD_CAT_ID   = 48274
ELEMENT_SET_NO = 999
REV_AT_EPOCH   = 28115
BSTAR          = .27286117E-3
MEAN_MOTION_DOT = .24066E-3
MEAN_MOTION_DDOT = 0

CCSDS_OMM_VERS = 2.0
CREATION_DATE  = 
ORIGINATOR     = 

OBJECT_NAME    = COSMOS 2550
OBJECT_ID      = 2021-056A
CENTER_NAME    = EARTH
REF_FRAME      = TEME
TIME_SYSTEM    = UTC
MEAN_ELEMENT_THEORY = SGP/SGP4

EPOCH          = 2026-04-01T11:17:21.715008
MEAN_MOTION    = 15.33839536
ECCENTRICITY   = .00083284
INCLINATION    = 67.1445
RA_OF_ASC_NODE = 331.9738
ARG_OF_PERICENTER = 269.3207
MEAN_ANOMALY   = 90.6993

EPHEMERIS_TYPE = 0
CLASSIFICATION_TYPE = U
NORAD_CAT_ID   = 48865
ELEMENT_SET_NO = 999
REV_AT_EPOCH   = 26695
BSTAR          = .17705072E-3
MEAN_MOTION_DOT = .5639E-4
MEAN_MOTION_DDOT = 0

CCSDS_OMM_VERS = 2.0
CREATION_DATE  = 
ORIGINATOR     = 

OBJECT_NAME    = CZ-2C R/B
OBJECT_ID      = 2022-058K
CENTER_NAME    = EARTH
REF_FRAME      = TEME
TIME_SYSTEM    = UTC
MEAN_ELEMENT_THEORY = SGP/SGP4

EPOCH          = 2026-04-01T13:56:23.959104
MEAN_MOTION    = 15.55999580
ECCENTRICITY   = .00413307
INCLINATION    = 50.1881
RA_OF_ASC_NODE = 200.3863
ARG_OF_PERICENTER = 299.0451
MEAN_ANOMALY   = 60.6383

EPHEMERIS_TYPE = 0
CLASSIFICATION_TYPE = U
NORAD_CAT_ID   = 52794
ELEMENT_SET_NO = 999
REV_AT_EPOCH   = 21369
BSTAR          = .59540125E-3
MEAN_MOTION_DOT = .43661E-3
MEAN_MOTION_DDOT = 0

CCSDS_OMM_VERS = 2.0
CREATION_DATE  = 
ORIGINATOR     = 

OBJECT_NAME    = CZ-2C R/B
OBJECT_ID      = 2022-132E
CENTER_NAME    = EARTH
REF_FRAME      = TEME
TIME_SYSTEM    = UTC
MEAN_ELEMENT_THEORY = SGP/SGP4

EPOCH          = 2026-04-01T22:23:28.963968
MEAN_MOTION    = 15.64056213
ECCENTRICITY   = .00166121
INCLINATION    = 97.2951
RA_OF_ASC_NODE = 95.9934
ARG_OF_PERICENTER = 13.9860
MEAN_ANOMALY   = 346.1855

EPHEMERIS_TYPE = 0
CLASSIFICATION_TYPE = U
NORAD_CAT_ID   = 54039
ELEMENT_SET_NO = 999
REV_AT_EPOCH   = 19400
BSTAR          = .51772441E-3
MEAN_MOTION_DOT = .4934E-3
MEAN_MOTION_DDOT = 0

CCSDS_OMM_VERS = 2.0
CREATION_DATE  = 
ORIGINATOR     = 

OBJECT_NAME    = GSLV R/B
OBJECT_ID      = 2022-138AN
CENTER_NAME    = EARTH
REF_FRAME      = TEME
TIME_SYSTEM    = UTC
MEAN_ELEMENT_THEORY = SGP/SGP4

EPOCH          = 2026-04-01T04:23:46.988736
MEAN_MOTION    = 14.96915376
ECCENTRICITY   = .00239397
INCLINATION    = 87.3855
RA_OF_ASC_NODE = 158.8315
ARG_OF_PERICENTER = 72.6423
MEAN_ANOMALY   = 287.7425

EPHEMERIS_TYPE = 0
CLASSIFICATION_TYPE = U
NORAD_CAT_ID   = 54149
ELEMENT_SET_NO = 999
REV_AT_EPOCH   = 18729
BSTAR          = .25928579E-3
MEAN_MOTION_DOT = .3021E-4
MEAN_MOTION_DDOT = 0

